[{"OBJECT_NAME":"STARLINK-4367","OBJECT_ID":"2022-084AS","EPOCH":"2026-03-09T18:05:37.658976","MEAN_MOTION":15.05648768,"ECCENTRICITY":9.235e-5,"INCLINATION":97.6027,"RA_OF_ASC_NODE":131.2595,"ARG_OF_PERICENTER":95.504,"MEAN_ANOMALY":264.6292,"EPHEMERIS_TYPE":0,"CLASSIFICATION_TYPE":"U","NORAD_CAT_ID":53229,"ELEMENT_SET_NO":999,"REV_AT_EPOCH":19939,"BSTAR":-2.2863299e-5,"MEAN_MOTION_DOT":-3.91e-6,"MEAN_MOTION_DDOT":0},{"OBJECT_NAME":"CZ-2C DEB","OBJECT_ID":"2009-061C","EPOCH":"2026-03-09T15:20:14.637120","MEAN_MOTION":14.99171478,"ECCENTRICITY":0.0032615,"INCLINATION":97.8461,"RA_OF_ASC_NODE":101.0533,"ARG_OF_PERICENTER":313.5449,"MEAN_ANOMALY":164.4427,"EPHEMERIS_TYPE":0,"CLASSIFICATION_TYPE":"U","NORAD_CAT_ID":36090,"ELEMENT_SET_NO":999,"REV_AT_EPOCH":86976,"BSTAR":0.0014405,"MEAN_MOTION_DOT":0.00017697,"MEAN_MOTION_DDOT":0}]
